[{"OBJECT_NAME":"STARLINK-5845","OBJECT_ID":"2023-088C","EPOCH":"2025-12-06T11:04:46.229952","MEAN_MOTION":15.02539472,"ECCENTRICITY":0.00014995,"INCLINATION":43.0037,"RA_OF_ASC_NODE":254.2426,"ARG_OF_PERICENTER":256.3235,"MEAN_ANOMALY":103.744,"EPHEMERIS_TYPE":0,"CLASSIFICATION_TYPE":"U","NORAD_CAT_ID":57050,"ELEMENT_SET_NO":999,"REV_AT_EPOCH":13634,"BSTAR":6.919e-7,"MEAN_MOTION_DOT":-1.94e-6,"MEAN_MOTION_DDOT":0},{"OBJECT_NAME":"STARLINK-5839","OBJECT_ID":"2023-088D","EPOCH":"2025-12-06T14:21:01.999584","MEAN_MOTION":15.02486637,"ECCENTRICITY":0.00015297,"INCLINATION":43.0033,"RA_OF_ASC_NODE":253.5418,"ARG_OF_PERICENTER":249.3133,"MEAN_ANOMALY":110.7545,"EPHEMERIS_TYPE":0,"CLASSIFICATION_TYPE":"U","NORAD_CAT_ID":57051,"ELEMENT_SET_NO":999,"REV_AT_EPOCH":13636,"BSTAR":0.0010798473,"MEAN_MOTION_DOT":0.00014394,"MEAN_MOTION_DDOT":0},{"OBJECT_NAME":"STARLINK-5860","OBJECT_ID":"2023-088E","EPOCH":"2025-12-06T14:25:50.438208","MEAN_MOTION":15.02508092,"ECCENTRICITY":6.641e-5,"INCLINATION":42.9992,"RA_OF_ASC_NODE":253.5629,"ARG_OF_PERICENTER":338.8025,"MEAN_ANOMALY":21.279,"EPHEMERIS_TYPE":0,"CLASSIFICATION_TYPE":"U","NORAD_CAT_ID":57052,"ELEMENT_SET_NO":999,"REV_AT_EPOCH":13636,"BSTAR":-8.64955e-6,"MEAN_MOTION_DOT":-3.2e-6,"MEAN_MOTION_DDOT":0},{"OBJECT_NAME":"STARLINK-5865","OBJECT_ID":"2023-088F","EPOCH":"2025-12-06T10:50:22.588512","MEAN_MOTION":15.0252584,"ECCENTRICITY":0.00011708,"INCLINATION":43.003,"RA_OF_ASC_NODE":254.1623,"ARG_OF_PERICENTER":267.1944,"MEAN_ANOMALY":92.8765,"EPHEMERIS_TYPE":0,"CLASSIFICATION_TYPE":"U","NORAD_CAT_ID":57053,"ELEMENT_SET_NO":999,"REV_AT_EPOCH":13634,"BSTAR":-7.6376909e-5,"MEAN_MOTION_DOT":-1.235e-5,"MEAN_MOTION_DDOT":0},{"OBJECT_NAME":"STARLINK-5881","OBJECT_ID":"2023-088G","EPOCH":"2025-12-06T04:11:28.407840","MEAN_MOTION":15.02542009,"ECCENTRICITY":0.00014693,"INCLINATION":43.0026,"RA_OF_ASC_NODE":255.5291,"ARG_OF_PERICENTER":271.5741,"MEAN_ANOMALY":88.4933,"EPHEMERIS_TYPE":0,"CLASSIFICATION_TYPE":"U","NORAD_CAT_ID":57054,"ELEMENT_SET_NO":999,"REV_AT_EPOCH":13630,"BSTAR":-0.00014285244,"MEAN_MOTION_DOT":-2.133e-5,"MEAN_MOTION_DDOT":0},{"OBJECT_NAME":"STARLINK-6237","OBJECT_ID":"2023-088H","EPOCH":"2025-12-06T11:01:33.535488","MEAN_MOTION":15.02535042,"ECCENTRICITY":0.00010859,"INCLINATION":43.0035,"RA_OF_ASC_NODE":254.2219,"ARG_OF_PERICENTER":276.1429,"MEAN_ANOMALY":83.9289,"EPHEMERIS_TYPE":0,"CLASSIFICATION_TYPE":"U","NORAD_CAT_ID":57055,"ELEMENT_SET_NO":999,"REV_AT_EPOCH":13634,"BSTAR":3.1530634e-5,"MEAN_MOTION_DOT":2.22e-6,"MEAN_MOTION_DDOT":0},{"OBJECT_NAME":"STARLINK-6353","OBJECT_ID":"2023-088J","EPOCH":"2025-12-06T02:37:21.265824","MEAN_MOTION":15.02528715,"ECCENTRICITY":0.00012097,"INCLINATION":43.0025,"RA_OF_ASC_NODE":255.8962,"ARG_OF_PERICENTER":273.2703,"MEAN_ANOMALY":86.8001,"EPHEMERIS_TYPE":0,"CLASSIFICATION_TYPE":"U","NORAD_CAT_ID":57056,"ELEMENT_SET_NO":999,"REV_AT_EPOCH":13629,"BSTAR":-7.7389139e-5,"MEAN_MOTION_DOT":-1.249e-5,"MEAN_MOTION_DDOT":0},{"OBJECT_NAME":"STARLINK-6223","OBJECT_ID":"2023-088K","EPOCH":"2025-12-06T04:08:15.331488","MEAN_MOTION":15.02551933,"ECCENTRICITY":0.00019631,"INCLINATION":43.0056,"RA_OF_ASC_NODE":255.4882,"ARG_OF_PERICENTER":270.177,"MEAN_ANOMALY":89.8847,"EPHEMERIS_TYPE":0,"CLASSIFICATION_TYPE":"U","NORAD_CAT_ID":57057,"ELEMENT_SET_NO":999,"REV_AT_EPOCH":13630,"BSTAR":0.00010232589,"MEAN_MOTION_DOT":1.179e-5,"MEAN_MOTION_DDOT":0},{"OBJECT_NAME":"STARLINK-6217","OBJECT_ID":"2023-088L","EPOCH":"2025-12-06T04:17:53.768256","MEAN_MOTION":15.02514161,"ECCENTRICITY":9.72e-5,"INCLINATION":43.0022,"RA_OF_ASC_NODE":255.5607,"ARG_OF_PERICENTER":244.3564,"MEAN_ANOMALY":115.7178,"EPHEMERIS_TYPE":0,"CLASSIFICATION_TYPE":"U","NORAD_CAT_ID":57058,"ELEMENT_SET_NO":999,"REV_AT_EPOCH":13630,"BSTAR":0.00019522835,"MEAN_MOTION_DOT":2.433e-5,"MEAN_MOTION_DDOT":0},{"OBJECT_NAME":"STARLINK-6211","OBJECT_ID":"2023-088M","EPOCH":"2025-12-06T03:20:30.360192","MEAN_MOTION":15.02526421,"ECCENTRICITY":0.00012391,"INCLINATION":43.0044,"RA_OF_ASC_NODE":256.108,"ARG_OF_PERICENTER":282.713,"MEAN_ANOMALY":77.3574,"EPHEMERIS_TYPE":0,"CLASSIFICATION_TYPE":"U","NORAD_CAT_ID":57059,"ELEMENT_SET_NO":999,"REV_AT_EPOCH":13629,"BSTAR":0.00025775936,"MEAN_MOTION_DOT":3.279e-5,"MEAN_MOTION_DDOT":0},{"OBJECT_NAME":"STARLINK-6227","OBJECT_ID":"2023-088N","EPOCH":"2025-12-06T11:23:56.442912","MEAN_MOTION":15.02534495,"ECCENTRICITY":0.00013558,"INCLINATION":43.003,"RA_OF_ASC_NODE":254.3293,"ARG_OF_PERICENTER":261.7467,"MEAN_ANOMALY":98.3222,"EPHEMERIS_TYPE":0,"CLASSIFICATION_TYPE":"U","NORAD_CAT_ID":57060,"ELEMENT_SET_NO":999,"REV_AT_EPOCH":13634,"BSTAR":-4.8683402e-5,"MEAN_MOTION_DOT":-8.61e-6,"MEAN_MOTION_DDOT":0},{"OBJECT_NAME":"STARLINK-5869","OBJECT_ID":"2023-088P","EPOCH":"2025-12-06T11:52:32.373696","MEAN_MOTION":15.02529714,"ECCENTRICITY":0.00010824,"INCLINATION":43.0062,"RA_OF_ASC_NODE":253.6183,"ARG_OF_PERICENTER":275.0917,"MEAN_ANOMALY":84.9802,"EPHEMERIS_TYPE":0,"CLASSIFICATION_TYPE":"U","NORAD_CAT_ID":57061,"ELEMENT_SET_NO":999,"REV_AT_EPOCH":13537,"BSTAR":-2.8566233e-5,"MEAN_MOTION_DOT":-5.89e-6,"MEAN_MOTION_DDOT":0},{"OBJECT_NAME":"STARLINK-5536","OBJECT_ID":"2023-088Q","EPOCH":"2025-12-06T10:13:59.389248","MEAN_MOTION":15.02532035,"ECCENTRICITY":0.00015291,"INCLINATION":43.0028,"RA_OF_ASC_NODE":240.9485,"ARG_OF_PERICENTER":261.6479,"MEAN_ANOMALY":98.419,"EPHEMERIS_TYPE":0,"CLASSIFICATION_TYPE":"U","NORAD_CAT_ID":57062,"ELEMENT_SET_NO":999,"REV_AT_EPOCH":13649,"BSTAR":0.00025785999,"MEAN_MOTION_DOT":3.281e-5,"MEAN_MOTION_DDOT":0},{"OBJECT_NAME":"STARLINK-5832","OBJECT_ID":"2023-088R","EPOCH":"2025-12-06T11:42:56.679264","MEAN_MOTION":15.02528865,"ECCENTRICITY":0.0001244,"INCLINATION":43.0009,"RA_OF_ASC_NODE":253.5688,"ARG_OF_PERICENTER":267.6328,"MEAN_ANOMALY":92.4372,"EPHEMERIS_TYPE":0,"CLASSIFICATION_TYPE":"U","NORAD_CAT_ID":57063,"ELEMENT_SET_NO":999,"REV_AT_EPOCH":13635,"BSTAR":5.784492e-5,"MEAN_MOTION_DOT":5.78e-6,"MEAN_MOTION_DDOT":0},{"OBJECT_NAME":"STARLINK-5822","OBJECT_ID":"2023-088S","EPOCH":"2025-12-06T10:59:57.629760","MEAN_MOTION":15.02540487,"ECCENTRICITY":0.00010256,"INCLINATION":43.0011,"RA_OF_ASC_NODE":254.2076,"ARG_OF_PERICENTER":283.5871,"MEAN_ANOMALY":76.4857,"EPHEMERIS_TYPE":0,"CLASSIFICATION_TYPE":"U","NORAD_CAT_ID":57064,"ELEMENT_SET_NO":999,"REV_AT_EPOCH":13536,"BSTAR":1.941727e-6,"MEAN_MOTION_DOT":-1.77e-6,"MEAN_MOTION_DDOT":0},{"OBJECT_NAME":"STARLINK-5830","OBJECT_ID":"2023-088T","EPOCH":"2025-12-06T11:28:42.056256","MEAN_MOTION":15.02554212,"ECCENTRICITY":0.00015998,"INCLINATION":43.005,"RA_OF_ASC_NODE":254.3409,"ARG_OF_PERICENTER":268.9418,"MEAN_ANOMALY":91.1241,"EPHEMERIS_TYPE":0,"CLASSIFICATION_TYPE":"U","NORAD_CAT_ID":57065,"ELEMENT_SET_NO":999,"REV_AT_EPOCH":13536,"BSTAR":2.0375638e-5,"MEAN_MOTION_DOT":7.2e-7,"MEAN_MOTION_DDOT":0}]
