[{"norad_id":"57050","company":"STARLINK","tle_line2":"2 57050  43.0037 254.2426 0001499 256.3235 103.7440 15.02539472136344","launch_date":"2023-06-22","type":"LEO","tle_line1":"1 57050U 23088C   25340.46164618 -.00000194  00000+0  69190-6 0  9993","satellite_name":"STARLINK-5845"},{"norad_id":"57051","company":"STARLINK","tle_line2":"2 57051  43.0033 253.5418 0001529 249.3133 110.7545 15.02486637136367","launch_date":"2023-06-22","type":"LEO","tle_line1":"1 57051U 23088D   25340.59793981  .00014394  00000+0  10798-2 0  9991","satellite_name":"STARLINK-5839"},{"norad_id":"57052","company":"STARLINK","tle_line2":"2 57052  42.9992 253.5629 0000664 338.8025  21.2790 15.02508092136365","launch_date":"2023-06-22","type":"LEO","tle_line1":"1 57052U 23088E   25340.60127822 -.00000320  00000+0 -86495-5 0  9995","satellite_name":"STARLINK-5860"},{"norad_id":"57053","company":"STARLINK","tle_line2":"2 57053  43.0030 254.1623 0001170 267.1944  92.8765 15.02525840136343","launch_date":"2023-06-22","type":"LEO","tle_line1":"1 57053U 23088F   25340.45165033 -.00001235  00000+0 -76377-4 0  9998","satellite_name":"STARLINK-5865"},{"norad_id":"57054","company":"STARLINK","tle_line2":"2 57054  43.0026 255.5291 0001469 271.5741  88.4933 15.02542009136300","launch_date":"2023-06-22","type":"LEO","tle_line1":"1 57054U 23088G   25340.17463435 -.00002133  00000+0 -14285-3 0  9992","satellite_name":"STARLINK-5881"},{"norad_id":"57055","company":"STARLINK","tle_line2":"2 57055  43.0035 254.2219 0001085 276.1429  83.9289 15.02535042136342","launch_date":"2023-06-22","type":"LEO","tle_line1":"1 57055U 23088H   25340.45941592  .00000222  00000+0  31531-4 0  9998","satellite_name":"STARLINK-6237"},{"norad_id":"57056","company":"STARLINK","tle_line2":"2 57056  43.0025 255.8962 0001209 273.2703  86.8001 15.02528715136292","launch_date":"2023-06-22","type":"LEO","tle_line1":"1 57056U 23088J   25340.10927391 -.00001249  00000+0 -77389-4 0  9995","satellite_name":"STARLINK-6353"},{"norad_id":"57057","company":"STARLINK","tle_line2":"2 57057  43.0056 255.4882 0001963 270.1770  89.8847 15.02551933136302","launch_date":"2023-06-22","type":"LEO","tle_line1":"1 57057U 23088K   25340.17239967  .00001179  00000+0  10233-3 0  9992","satellite_name":"STARLINK-6223"},{"norad_id":"57058","company":"STARLINK","tle_line2":"2 57058  43.0022 255.5607 0000972 244.3564 115.7178 15.02514161136303","launch_date":"2023-06-22","type":"LEO","tle_line1":"1 57058U 23088L   25340.17909454  .00002433  00000+0  19523-3 0  9993","satellite_name":"STARLINK-6217"},{"norad_id":"57059","company":"STARLINK","tle_line2":"2 57059  43.0044 256.1080 0001239 282.7130  77.3574 15.02526421136295","launch_date":"2023-06-22","type":"LEO","tle_line1":"1 57059U 23088M   25340.13924028  .00003279  00000+0  25776-3 0  9990","satellite_name":"STARLINK-6211"},{"norad_id":"57060","company":"STARLINK","tle_line2":"2 57060  43.0030 254.3293 0001355 261.7467  98.3222 15.02534495136346","launch_date":"2023-06-22","type":"LEO","tle_line1":"1 57060U 23088N   25340.47495883 -.00000861  00000+0 -48683-4 0  9990","satellite_name":"STARLINK-6227"},{"norad_id":"57061","company":"STARLINK","tle_line2":"2 57061  43.0062 253.6183 0001082 275.0917  84.9802 15.02529714135372","launch_date":"2023-06-22","type":"LEO","tle_line1":"1 57061U 23088P   25340.49481914 -.00000589  00000+0 -28566-4 0  9998","satellite_name":"STARLINK-5869"},{"norad_id":"57062","company":"STARLINK","tle_line2":"2 57062  43.0028 240.9485 0001529 261.6479  98.4190 15.02532035136493","launch_date":"2023-06-22","type":"LEO","tle_line1":"1 57062U 23088Q   25340.42638182  .00003281  00000+0  25786-3 0  9993","satellite_name":"STARLINK-5536"},{"norad_id":"57063","company":"STARLINK","tle_line2":"2 57063  43.0009 253.5688 0001244 267.6328  92.4372 15.02528865136358","launch_date":"2023-06-22","type":"LEO","tle_line1":"1 57063U 23088R   25340.48815601  .00000578  00000+0  57845-4 0  9991","satellite_name":"STARLINK-5832"},{"norad_id":"57064","company":"STARLINK","tle_line2":"2 57064  43.0011 254.2076 0001025 283.5871  76.4857 15.02540487135362","launch_date":"2023-06-22","type":"LEO","tle_line1":"1 57064U 23088S   25340.45830590 -.00000177  00000+0  19417-5 0  9993","satellite_name":"STARLINK-5822"},{"norad_id":"57065","company":"STARLINK","tle_line2":"2 57065  43.0050 254.3409 0001599 268.9418  91.1241 15.02554212135369","launch_date":"2023-06-22","type":"LEO","tle_line1":"1 57065U 23088T   25340.47826454  .00000072  00000+0  20376-4 0  9998","satellite_name":"STARLINK-5830"}]